{"type": "FeatureCollection", "features": [ {"type": "Feature", "properties": {"norad_id": 66999, "name": "2025-292G", "group": "last-30-days", "lat": 73.45461445359497, "lon": 39.962718068247135, "alt_km": 554.4266125218555, "timestamp": "2025-12-20T09:36:00.355436+00:00", "meta": {"OBJECT_NAME": "2025-292G", "OBJECT_ID": "2025-292G", "EPOCH": "2025-12-20T04:28:43.936896", "MEAN_MOTION": 15.04960557, "ECCENTRICITY": 0.0014214, "INCLINATION": 97.6566, "RA_OF_ASC_NODE": 66.677, "ARG_OF_PERICENTER": 252.1026, "MEAN_ANOMALY": 107.865, "EPHEMERIS_TYPE": 0, "CLASSIFICATION_TYPE": "U", "NORAD_CAT_ID": 66999, "ELEMENT_SET_NO": 999, "REV_AT_EPOCH": 151, "BSTAR": 0.00023119, "MEAN_MOTION_DOT": 3.221e-05, "MEAN_MOTION_DDOT": 0}, "tle": {"line1": "1 66999U 25292G   25354.18661964  .00003221  00000+0  23119-3 0  9995", "line2": "2 66999  97.6566  66.6770 0014214 252.1026 107.8650 15.04960557  1518"}}, "geometry": {"type": "Point", "coordinates": [39.962718068247135, 73.45461445359497]}}, {"type": "Feature", "properties": {"norad_id": 67000, "name": "2025-292H", "group": "last-30-days", "lat": 73.65176770780174, "lon": 39.58726136625336, "alt_km": 554.3188133288131, "timestamp": "2025-12-20T09:36:00.355449+00:00", "meta": {"OBJECT_NAME": "2025-292H", "OBJECT_ID": "2025-292H", "EPOCH": "2025-12-20T01:17:11.461632", "MEAN_MOTION": 15.04976698, "ECCENTRICITY": 0.0014167, "INCLINATION": 97.658, "RA_OF_ASC_NODE": 66.5468, "ARG_OF_PERICENTER": 252.1732, "MEAN_ANOMALY": 107.7949, "EPHEMERIS_TYPE": 0, "CLASSIFICATION_TYPE": "U", "NORAD_CAT_ID": 67000, "ELEMENT_SET_NO": 999, "REV_AT_EPOCH": 136, "BSTAR": 0.00030083, "MEAN_MOTION_DOT": 4.213e-05, "MEAN_MOTION_DDOT": 0}, "tle": {"line1": "1 67000U 25292H   25354.05360488  .00004213  00000+0  30083-3 0  9992", "line2": "2 67000  97.6580  66.5468 0014167 252.1732 107.7949 15.04976698  1368"}}, "geometry": {"type": "Point", "coordinates": [39.58726136625336, 73.65176770780174]}}, {"type": "Feature", "properties": {"norad_id": 67001, "name": "2025-292J", "group": "last-30-days", "lat": 53.08992024533128, "lon": 56.5618041042491, "alt_km": 558.3941455442073, "timestamp": "2025-12-20T09:36:00.355459+00:00", "meta": {"OBJECT_NAME": "2025-292J", "OBJECT_ID": "2025-292J", "EPOCH": "2025-12-20T04:34:20.172864", "MEAN_MOTION": 15.04376821, "ECCENTRICITY": 0.0014403, "INCLINATION": 97.6559, "RA_OF_ASC_NODE": 66.6711, "ARG_OF_PERICENTER": 240.7545, "MEAN_ANOMALY": 119.2241, "EPHEMERIS_TYPE": 0, "CLASSIFICATION_TYPE": "U", "NORAD_CAT_ID": 67001, "ELEMENT_SET_NO": 999, "REV_AT_EPOCH": 151, "BSTAR": 0.00025591, "MEAN_MOTION_DOT": 3.517e-05, "MEAN_MOTION_DDOT": 0}, "tle": {"line1": "1 67001U 25292J   25354.19051126  .00003517  00000+0  25591-3 0  9998", "line2": "2 67001  97.6559  66.6711 0014403 240.7545 119.2241 15.04376821  1517"}}, "geometry": {"type": "Point", "coordinates": [56.5618041042491, 53.08992024533128]}}, {"type": "Feature", "properties": {"norad_id": 67002, "name": "ZK-1A R/B", "group": "last-30-days", "lat": 50.52172713669401, "lon": -102.71376922757736, "alt_km": 516.3710677214158, "timestamp": "2025-12-20T09:36:00.355469+00:00", "meta": {"OBJECT_NAME": "ZK-1A R/B", "OBJECT_ID": "2025-292K", "EPOCH": "2025-12-20T02:52:49.257120", "MEAN_MOTION": 15.56910892, "ECCENTRICITY": 0.0211615, "INCLINATION": 97.7223, "RA_OF_ASC_NODE": 67.5006, "ARG_OF_PERICENTER": 338.7874, "MEAN_ANOMALY": 20.4699, "EPHEMERIS_TYPE": 0, "CLASSIFICATION_TYPE": "U", "NORAD_CAT_ID": 67002, "ELEMENT_SET_NO": 999, "REV_AT_EPOCH": 154, "BSTAR": 0.00063628, "MEAN_MOTION_DOT": 0.00133176, "MEAN_MOTION_DDOT": 6.8949e-06}, "tle": {"line1": "1 67002U 25292K   25354.12001455  .00133176  68949-5  63628-3 0  9992", "line2": "2 67002  97.7223  67.5006 0211615 338.7874  20.4699 15.56910892  1543"}}, "geometry": {"type": "Point", "coordinates": [-102.71376922757736, 50.52172713669401]}}, {"type": "Feature", "properties": {"norad_id": 67003, "name": "STARLINK-35660", "group": "last-30-days", "lat": -15.234269974005178, "lon": -64.13860567204645, "alt_km": 301.3317625708787, "timestamp": "2025-12-20T09:36:00.355482+00:00", "meta": {"OBJECT_NAME": "STARLINK-35660", "OBJECT_ID": "2025-293A", "EPOCH": "2025-12-20T04:00:00.999072", "MEAN_MOTION": 15.9211048, "ECCENTRICITY": 0.0003917, "INCLINATION": 69.994, "RA_OF_ASC_NODE": 302.2335, "ARG_OF_PERICENTER": 272.1723, "MEAN_ANOMALY": 174.961, "EPHEMERIS_TYPE": 0, "CLASSIFICATION_TYPE": "U", "NORAD_CAT_ID": 67003, "ELEMENT_SET_NO": 999, "REV_AT_EPOCH": 137, "BSTAR": -0.0033033, "MEAN_MOTION_DOT": -0.01101986, "MEAN_MOTION_DDOT": 0.000362}, "tle": {"line1": "1 67003U 25293A   25354.16667823 -.01101986  36200-3 -33033-2 0  9991", "line2": "2 67003  69.9940 302.2335 0003917 272.1723 174.9610 15.92110480  1377"}}, "geometry": {"type": "Point", "coordinates": [-64.13860567204645, -15.234269974005178]}}, {"type": "Feature", "properties": {"norad_id": 67004, "name": "STARLINK-35913", "group": "last-30-days", "lat": -13.268599400951734, "lon": -63.37534896184198, "alt_km": 301.09523537823316, "timestamp": "2025-12-20T09:36:00.355492+00:00", "meta": {"OBJECT_NAME": "STARLINK-35913", "OBJECT_ID": "2025-293B", "EPOCH": "2025-12-20T04:00:00.999072", "MEAN_MOTION": 15.92151644, "ECCENTRICITY": 0.0003917, "INCLINATION": 69.994, "RA_OF_ASC_NODE": 302.231, "ARG_OF_PERICENTER": 272.5226, "MEAN_ANOMALY": 176.6775, "EPHEMERIS_TYPE": 0, "CLASSIFICATION_TYPE": "U", "NORAD_CAT_ID": 67004, "ELEMENT_SET_NO": 999, "REV_AT_EPOCH": 137, "BSTAR": -0.0032942, "MEAN_MOTION_DOT": -0.01101285, "MEAN_MOTION_DDOT": 0.00036173}, "tle": {"line1": "1 67004U 25293B   25354.16667823 -.01101285  36173-3 -32942-2 0  9991", "line2": "2 67004  69.9940 302.2310 0003917 272.5226 176.6775 15.92151644  1371"}}, "geometry": {"type": "Point", "coordinates": [-63.37534896184198, -13.268599400951734]}}, {"type": "Feature", "properties": {"norad_id": 67005, "name": "STARLINK-36148", "group": "last-30-days", "lat": -11.177948781644279, "lon": -62.57742067411962, "alt_km": 300.7643150707654, "timestamp": "2025-12-20T09:36:00.355502+00:00", "meta": {"OBJECT_NAME": "STARLINK-36148", "OBJECT_ID": "2025-293C", "EPOCH": "2025-12-20T04:00:00.999072", "MEAN_MOTION": 15.9220429, "ECCENTRICITY": 0.0004005, "INCLINATION": 69.9943, "RA_OF_ASC_NODE": 302.2288, "ARG_OF_PERICENTER": 273.8728, "MEAN_ANOMALY": 177.5166, "EPHEMERIS_TYPE": 0, "CLASSIFICATION_TYPE": "U", "NORAD_CAT_ID": 67005, "ELEMENT_SET_NO": 999, "REV_AT_EPOCH": 137, "BSTAR": -0.0033146, "MEAN_MOTION_DOT": -0.01111086, "MEAN_MOTION_DDOT": 0.00036789}, "tle": {"line1": "1 67005U 25293C   25354.16667823 -.01111086  36789-3 -33146-2 0  9992", "line2": "2 67005  69.9943 302.2288 0004005 273.8728 177.5166 15.92204290  1379"}}, "geometry": {"type": "Point", "coordinates": [-62.57742067411962, -11.177948781644279]}}, {"type": "Feature", "properties": {"norad_id": 67006, "name": "STARLINK-36156", "group": "last-30-days", "lat": -6.216807489311286, "lon": -60.730110104450574, "alt_km": 300.2248444368279, "timestamp": "2025-12-20T09:36:00.355512+00:00", "meta": {"OBJECT_NAME": "STARLINK-36156", "OBJECT_ID": "2025-293D", "EPOCH": "2025-12-20T04:00:00.999072", "MEAN_MOTION": 15.92316904, "ECCENTRICITY": 0.000396, "INCLINATION": 69.9943, "RA_OF_ASC_NODE": 302.2221, "ARG_OF_PERICENTER": 272.3542, "MEAN_ANOMALY": 184.2321, "EPHEMERIS_TYPE": 0, "CLASSIFICATION_TYPE": "U", "NORAD_CAT_ID": 67006, "ELEMENT_SET_NO": 999, "REV_AT_EPOCH": 137, "BSTAR": -0.0033367, "MEAN_MOTION_DOT": -0.01124883, "MEAN_MOTION_DDOT": 0.00037679}, "tle": {"line1": "1 67006U 25293D   25354.16667823 -.01124883  37679-3 -33367-2 0  9996", "line2": "2 67006  69.9943 302.2221 0003960 272.3542 184.2321 15.92316904  1378"}}, "geometry": {"type": "Point", "coordinates": [-60.730110104450574, -6.216807489311286]}}, {"type": "Feature", "properties": {"norad_id": 67007, "name": "STARLINK-36123", "group": "last-30-days", "lat": -8.461928564569924, "lon": -61.56004299034387, "alt_km": 300.5171438376565, "timestamp": "2025-12-20T09:36:00.355524+00:00", "meta": {"OBJECT_NAME": "STARLINK-36123", "OBJECT_ID": "2025-293E", "EPOCH": "2025-12-20T04:00:00.999072", "MEAN_MOTION": 15.92262566, "ECCENTRICITY": 0.0003971, "INCLINATION": 69.994, "RA_OF_ASC_NODE": 302.2248, "ARG_OF_PERICENTER": 272.2884, "MEAN_ANOMALY": 181.9495, "EPHEMERIS_TYPE": 0, "CLASSIFICATION_TYPE": "U", "NORAD_CAT_ID": 67007, "ELEMENT_SET_NO": 999, "REV_AT_EPOCH": 137, "BSTAR": -0.0033181, "MEAN_MOTION_DOT": -0.01115565, "MEAN_MOTION_DDOT": 0.00037085}, "tle": {"line1": "1 67007U 25293E   25354.16667823 -.01115565  37085-3 -33181-2 0  9999", "line2": "2 67007  69.9940 302.2248 0003971 272.2884 181.9495 15.92262566  1375"}}, "geometry": {"type": "Point", "coordinates": [-61.56004299034387, -8.461928564569924]}}, {"type": "Feature", "properties": {"norad_id": 67008, "name": "STARLINK-36163", "group": "last-30-days", "lat": -3.2521560416794753, "lon": -59.64532127554986, "alt_km": 299.8367318006012, "timestamp": "2025-12-20T09:36:00.355534+00:00", "meta": {"OBJECT_NAME": "STARLINK-36163", "OBJECT_ID": "2025-293F", "EPOCH": "2025-12-20T04:00:00.999072", "MEAN_MOTION": 15.92377231, "ECCENTRICITY": 0.0003942, "INCLINATION": 69.9943, "RA_OF_ASC_NODE": 302.2186, "ARG_OF_PERICENTER": 272.4153, "MEAN_ANOMALY": 187.2767, "EPHEMERIS_TYPE": 0, "CLASSIFICATION_TYPE": "U", "NORAD_CAT_ID": 67008, "ELEMENT_SET_NO": 999, "REV_AT_EPOCH": 137, "BSTAR": -0.0033222, "MEAN_MOTION_DOT": -0.01123505, "MEAN_MOTION_DDOT": 0.00037617}, "tle": {"line1": "1 67008U 25293F   25354.16667823 -.01123505  37617-3 -33222-2 0  9990", "line2": "2 67008  69.9943 302.2186 0003942 272.4153 187.2767 15.92377231  1376"}}, "geometry": {"type": "Point", "coordinates": [-59.64532127554986, -3.2521560416794753]}}]}